{
  "type": "FeatureCollection",
  "name": "Linha de frente da Ucrânia — Liveuamap — 30/07/2026",
  "features": [
    {
      "type": "Feature",
      "properties": {
        "nome": "Linha principal",
        "data_referencia": "2026-07-30",
        "atualizacao_liveuamap": "30/07/2026 20:16:54",
        "fonte": "Liveuamap",
        "fonte_url": "https://liveuamap.com/",
        "metodo": "Vetorização da camada de controle exibida no Liveuamap em zoom 9, união dos segmentos contíguos e remoção aproximada de fronteiras internacionais e litoral.",
        "aviso": "Recorte cartográfico aproximado; não usar para navegação ou decisões operacionais."
      },
      "geometry": {
        "type": "LineString",
        "coordinates": [
          [
            32.71454,
            46.66829
          ],
          [
            32.77222,
            46.67017
          ],
          [
            32.79694,
            46.67583
          ],
          [
            32.83539,
            46.68902
          ],
          [
            32.87109,
            46.70597
          ],
          [
            32.89307,
            46.71162
          ],
          [
            32.9068,
            46.71162
          ],
          [
            32.92053,
            46.71727
          ],
          [
            32.93152,
            46.71727
          ],
          [
            32.9425,
            46.7135
          ],
          [
            33.00293,
            46.70597
          ],
          [
            33.04138,
            46.71162
          ],
          [
            33.05237,
            46.72857
          ],
          [
            33.10181,
            46.74739
          ],
          [
            33.15674,
            46.76244
          ],
          [
            33.22266,
            46.76621
          ],
          [
            33.24738,
            46.76244
          ],
          [
            33.26111,
            46.75303
          ],
          [
            33.30231,
            46.75115
          ],
          [
            33.349,
            46.76432
          ],
          [
            33.39294,
            46.79254
          ],
          [
            33.47534,
            46.83765
          ],
          [
            33.58795,
            46.83953
          ],
          [
            33.60168,
            46.85456
          ],
          [
            33.63464,
            46.94089
          ],
          [
            33.6676,
            46.98962
          ],
          [
            33.68408,
            47.03269
          ],
          [
            33.75549,
            47.06264
          ],
          [
            33.80493,
            47.10004
          ],
          [
            33.82965,
            47.15424
          ],
          [
            33.91479,
            47.21211
          ],
          [
            33.96423,
            47.2755
          ],
          [
            34.01917,
            47.37975
          ],
          [
            34.04663,
            47.42251
          ],
          [
            34.17023,
            47.42251
          ],
          [
            34.20868,
            47.41694
          ],
          [
            34.30756,
            47.44481
          ],
          [
            34.33777,
            47.48194
          ],
          [
            34.38171,
            47.51535
          ],
          [
            34.44489,
            47.50236
          ],
          [
            34.5108,
            47.50236
          ],
          [
            34.56024,
            47.50607
          ],
          [
            34.5932,
            47.53204
          ],
          [
            34.6344,
            47.55058
          ],
          [
            34.68109,
            47.51535
          ],
          [
            34.68933,
            47.49308
          ],
          [
            34.75525,
            47.49122
          ],
          [
            34.82117,
            47.46152
          ],
          [
            34.87335,
            47.44852
          ],
          [
            34.86786,
            47.42437
          ],
          [
            34.88434,
            47.40579
          ],
          [
            34.9173,
            47.39463
          ],
          [
            34.96399,
            47.38719
          ],
          [
            35.01892,
            47.41136
          ],
          [
            35.06287,
            47.45038
          ],
          [
            35.12329,
            47.45409
          ],
          [
            35.16724,
            47.44109
          ],
          [
            35.21393,
            47.44295
          ],
          [
            35.24414,
            47.45781
          ],
          [
            35.27435,
            47.5005
          ],
          [
            35.33478,
            47.53575
          ],
          [
            35.32654,
            47.56355
          ],
          [
            35.28809,
            47.5932
          ],
          [
            35.31281,
            47.5932
          ],
          [
            35.34576,
            47.58208
          ],
          [
            35.38422,
            47.58579
          ],
          [
            35.39795,
            47.59505
          ],
          [
            35.41718,
            47.60061
          ],
          [
            35.42542,
            47.60616
          ],
          [
            35.4364,
            47.60616
          ],
          [
            35.44189,
            47.5932
          ],
          [
            35.44189,
            47.57653
          ],
          [
            35.43365,
            47.57467
          ],
          [
            35.43365,
            47.55614
          ],
          [
            35.42542,
            47.55243
          ],
          [
            35.43091,
            47.54131
          ],
          [
            35.47485,
            47.53946
          ],
          [
            35.53528,
            47.54502
          ],
          [
            35.57648,
            47.54502
          ],
          [
            35.59021,
            47.5376
          ],
          [
            35.61493,
            47.5005
          ],
          [
            35.70831,
            47.52091
          ],
          [
            35.73578,
            47.49679
          ],
          [
            35.78247,
            47.48009
          ],
          [
            35.7962,
            47.46524
          ],
          [
            35.79895,
            47.46709
          ],
          [
            35.81268,
            47.46338
          ],
          [
            35.82642,
            47.45409
          ],
          [
            35.87311,
            47.45038
          ],
          [
            35.88135,
            47.45967
          ],
          [
            35.90607,
            47.45781
          ],
          [
            35.93903,
            47.47081
          ],
          [
            35.92804,
            47.49865
          ],
          [
            35.93628,
            47.52091
          ],
          [
            35.95001,
            47.52647
          ],
          [
            35.98572,
            47.52091
          ],
          [
            35.9967,
            47.52462
          ],
          [
            36.01044,
            47.52462
          ],
          [
            36.0379,
            47.53575
          ],
          [
            36.05713,
            47.53575
          ],
          [
            36.06262,
            47.54502
          ],
          [
            36.0434,
            47.57467
          ],
          [
            36.0434,
            47.58764
          ],
          [
            36.02966,
            47.60616
          ],
          [
            36.07635,
            47.5969
          ],
          [
            36.08459,
            47.60431
          ],
          [
            36.08734,
            47.61912
          ],
          [
            36.10382,
            47.61357
          ],
          [
            36.10657,
            47.61727
          ],
          [
            36.14777,
            47.62283
          ],
          [
            36.17523,
            47.63208
          ],
          [
            36.16974,
            47.65799
          ],
          [
            36.15875,
            47.66539
          ],
          [
            36.14502,
            47.67279
          ],
          [
            36.11206,
            47.66539
          ],
          [
            36.10657,
            47.68388
          ],
          [
            36.10931,
            47.69313
          ],
          [
            36.05164,
            47.71161
          ],
          [
            36.04614,
            47.73378
          ],
          [
            36.05164,
            47.74117
          ],
          [
            36.06262,
            47.73932
          ],
          [
            36.09558,
            47.74302
          ],
          [
            36.11206,
            47.75594
          ],
          [
            36.10657,
            47.77071
          ],
          [
            36.09558,
            47.78363
          ],
          [
            36.12579,
            47.81869
          ],
          [
            36.13678,
            47.80209
          ],
          [
            36.15875,
            47.80947
          ],
          [
            36.16974,
            47.7984
          ],
          [
            36.18073,
            47.79471
          ],
          [
            36.17523,
            47.78917
          ],
          [
            36.18347,
            47.77994
          ],
          [
            36.19446,
            47.77441
          ],
          [
            36.21094,
            47.78363
          ],
          [
            36.28235,
            47.77441
          ],
          [
            36.36749,
            47.77994
          ],
          [
            36.35925,
            47.79471
          ],
          [
            36.33179,
            47.80209
          ],
          [
            36.31256,
            47.80209
          ],
          [
            36.27686,
            47.81315
          ],
          [
            36.25214,
            47.81131
          ],
          [
            36.2384,
            47.82422
          ],
          [
            36.21094,
            47.82422
          ],
          [
            36.16974,
            47.84266
          ],
          [
            36.1972,
            47.85925
          ],
          [
            36.18622,
            47.86662
          ],
          [
            36.1972,
            47.87583
          ],
          [
            36.18347,
            47.88136
          ],
          [
            36.18347,
            47.89056
          ],
          [
            36.1972,
            47.89793
          ],
          [
            36.23016,
            47.89609
          ],
          [
            36.23291,
            47.88688
          ],
          [
            36.25763,
            47.8832
          ],
          [
            36.26587,
            47.87214
          ],
          [
            36.29333,
            47.85372
          ],
          [
            36.30157,
            47.83344
          ],
          [
            36.31805,
            47.82606
          ],
          [
            36.32904,
            47.82606
          ],
          [
            36.32355,
            47.83897
          ],
          [
            36.36749,
            47.86109
          ],
          [
            36.38397,
            47.86477
          ],
          [
            36.42242,
            47.85003
          ],
          [
            36.46912,
            47.82422
          ],
          [
            36.5213,
            47.82791
          ],
          [
            36.5213,
            47.83713
          ],
          [
            36.54327,
            47.83897
          ],
          [
            36.58447,
            47.84819
          ],
          [
            36.57349,
            47.89425
          ],
          [
            36.59271,
            47.91266
          ],
          [
            36.6394,
            47.92002
          ],
          [
            36.63116,
            47.96234
          ],
          [
            36.64764,
            47.9697
          ],
          [
            36.66687,
            47.98441
          ],
          [
            36.67511,
            47.99544
          ],
          [
            36.69983,
            47.99727
          ],
          [
            36.73553,
            48.00463
          ],
          [
            36.72455,
            48.02116
          ],
          [
            36.71356,
            48.023
          ],
          [
            36.69983,
            48.03035
          ],
          [
            36.6806,
            48.03218
          ],
          [
            36.66962,
            48.03953
          ],
          [
            36.69159,
            48.05055
          ],
          [
            36.70807,
            48.07257
          ],
          [
            36.71631,
            48.07624
          ],
          [
            36.71906,
            48.08542
          ],
          [
            36.73828,
            48.07624
          ],
          [
            36.763,
            48.07257
          ],
          [
            36.77673,
            48.07808
          ],
          [
            36.79871,
            48.07441
          ],
          [
            36.80969,
            48.07808
          ],
          [
            36.84814,
            48.08175
          ],
          [
            36.88934,
            48.10927
          ],
          [
            36.87836,
            48.15693
          ],
          [
            36.89484,
            48.18806
          ],
          [
            36.90308,
            48.19173
          ],
          [
            36.90857,
            48.20454
          ],
          [
            36.90308,
            48.23748
          ],
          [
            36.91956,
            48.24297
          ],
          [
            36.93878,
            48.24297
          ],
          [
            36.93878,
            48.25943
          ],
          [
            36.92505,
            48.27223
          ],
          [
            36.93604,
            48.27954
          ],
          [
            36.93604,
            48.29233
          ],
          [
            37.00195,
            48.27954
          ],
          [
            37.00745,
            48.26674
          ],
          [
            37.02393,
            48.25943
          ],
          [
            37.0459,
            48.2576
          ],
          [
            37.07611,
            48.26674
          ],
          [
            37.0871,
            48.27405
          ],
          [
            37.09808,
            48.28868
          ],
          [
            37.08435,
            48.29964
          ],
          [
            36.97998,
            48.31425
          ],
          [
            36.97449,
            48.32339
          ],
          [
            37.01019,
            48.34895
          ],
          [
            37.01843,
            48.3599
          ],
          [
            37.01569,
            48.37267
          ],
          [
            36.99097,
            48.38179
          ],
          [
            36.96899,
            48.4055
          ],
          [
            36.99097,
            48.41462
          ],
          [
            37.02118,
            48.40003
          ],
          [
            37.05963,
            48.4055
          ],
          [
            37.0816,
            48.40186
          ],
          [
            37.08984,
            48.37997
          ],
          [
            37.10907,
            48.37632
          ],
          [
            37.12006,
            48.37997
          ],
          [
            37.11456,
            48.38544
          ],
          [
            37.1228,
            48.39821
          ],
          [
            37.14203,
            48.39821
          ],
          [
            37.17499,
            48.38727
          ],
          [
            37.19696,
            48.39456
          ],
          [
            37.19971,
            48.41644
          ],
          [
            37.21619,
            48.42009
          ],
          [
            37.22168,
            48.42556
          ],
          [
            37.21893,
            48.43102
          ],
          [
            37.21069,
            48.43467
          ],
          [
            37.18597,
            48.43831
          ],
          [
            37.14752,
            48.44924
          ],
          [
            37.13379,
            48.44924
          ],
          [
            37.13928,
            48.45835
          ],
          [
            37.11731,
            48.46746
          ],
          [
            37.12006,
            48.47838
          ],
          [
            37.1283,
            48.48203
          ],
          [
            37.14203,
            48.50023
          ],
          [
            37.15576,
            48.49113
          ],
          [
            37.20245,
            48.47656
          ],
          [
            37.20795,
            48.46746
          ],
          [
            37.22168,
            48.46382
          ],
          [
            37.23267,
            48.4711
          ],
          [
            37.23541,
            48.48203
          ],
          [
            37.29034,
            48.50387
          ],
          [
            37.30133,
            48.52206
          ],
          [
            37.31232,
            48.52752
          ],
          [
            37.33704,
            48.50569
          ],
          [
            37.37274,
            48.48385
          ],
          [
            37.38098,
            48.48749
          ],
          [
            37.40295,
            48.48931
          ],
          [
            37.41943,
            48.51297
          ],
          [
            37.43317,
            48.52024
          ],
          [
            37.43042,
            48.53479
          ],
          [
            37.47711,
            48.55116
          ],
          [
            37.48535,
            48.53661
          ],
          [
            37.49908,
            48.5257
          ],
          [
            37.50183,
            48.49841
          ],
          [
            37.54852,
            48.46746
          ],
          [
            37.58423,
            48.45107
          ],
          [
            37.60071,
            48.45471
          ],
          [
            37.60895,
            48.46017
          ],
          [
            37.6062,
            48.46928
          ],
          [
            37.61169,
            48.4802
          ],
          [
            37.58972,
            48.49295
          ],
          [
            37.59521,
            48.51115
          ],
          [
            37.58698,
            48.5166
          ],
          [
            37.61444,
            48.52934
          ],
          [
            37.66113,
            48.52934
          ],
          [
            37.66388,
            48.52206
          ],
          [
            37.67761,
            48.52206
          ],
          [
            37.69684,
            48.50751
          ],
          [
            37.70233,
            48.50205
          ],
          [
            37.71606,
            48.49659
          ],
          [
            37.70233,
            48.48931
          ],
          [
            37.71606,
            48.48567
          ],
          [
            37.73804,
            48.47292
          ],
          [
            37.75177,
            48.47292
          ],
          [
            37.75452,
            48.49477
          ],
          [
            37.74353,
            48.49841
          ],
          [
            37.7298,
            48.52024
          ],
          [
            37.71881,
            48.52752
          ],
          [
            37.70782,
            48.5257
          ],
          [
            37.70782,
            48.53479
          ],
          [
            37.69684,
            48.54389
          ],
          [
            37.68311,
            48.53843
          ],
          [
            37.67487,
            48.54025
          ],
          [
            37.64465,
            48.55661
          ],
          [
            37.66937,
            48.57479
          ],
          [
            37.69409,
            48.56025
          ],
          [
            37.69409,
            48.55298
          ],
          [
            37.71057,
            48.55298
          ],
          [
            37.72705,
            48.54752
          ],
          [
            37.74078,
            48.54752
          ],
          [
            37.7655,
            48.52388
          ],
          [
            37.79572,
            48.53661
          ],
          [
            37.82318,
            48.54389
          ],
          [
            37.82318,
            48.55661
          ],
          [
            37.81219,
            48.57842
          ],
          [
            37.81769,
            48.58569
          ],
          [
            37.81494,
            48.58751
          ],
          [
            37.80396,
            48.59114
          ],
          [
            37.7655,
            48.58388
          ],
          [
            37.70782,
            48.59659
          ],
          [
            37.74902,
            48.60567
          ],
          [
            37.74902,
            48.61657
          ],
          [
            37.78198,
            48.62202
          ],
          [
            37.78198,
            48.63109
          ],
          [
            37.77374,
            48.64561
          ],
          [
            37.78748,
            48.64924
          ],
          [
            37.79022,
            48.65831
          ],
          [
            37.7655,
            48.66738
          ],
          [
            37.7655,
            48.69096
          ],
          [
            37.771,
            48.70365
          ],
          [
            37.78473,
            48.7109
          ],
          [
            37.79572,
            48.71271
          ],
          [
            37.80121,
            48.71996
          ],
          [
            37.79846,
            48.73083
          ],
          [
            37.79022,
            48.73989
          ],
          [
            37.80396,
            48.74351
          ],
          [
            37.80396,
            48.75619
          ],
          [
            37.85339,
            48.75438
          ],
          [
            37.86438,
            48.758
          ],
          [
            37.88635,
            48.758
          ],
          [
            37.90009,
            48.76705
          ],
          [
            37.90283,
            48.77791
          ],
          [
            37.89459,
            48.78515
          ],
          [
            37.85614,
            48.78515
          ],
          [
            37.85614,
            48.80144
          ],
          [
            37.83691,
            48.80867
          ],
          [
            37.83417,
            48.81591
          ],
          [
            37.79572,
            48.80325
          ],
          [
            37.78198,
            48.8141
          ],
          [
            37.77924,
            48.83037
          ],
          [
            37.80396,
            48.83941
          ],
          [
            37.80121,
            48.85387
          ],
          [
            37.89459,
            48.85026
          ],
          [
            37.90833,
            48.85929
          ],
          [
            37.91107,
            48.87917
          ],
          [
            37.90009,
            48.87736
          ],
          [
            37.90009,
            48.8882
          ],
          [
            37.88361,
            48.88639
          ],
          [
            37.85065,
            48.89
          ],
          [
            37.89185,
            48.92069
          ],
          [
            37.90558,
            48.91889
          ],
          [
            37.94952,
            48.94596
          ],
          [
            37.91656,
            48.97841
          ],
          [
            37.89185,
            48.97661
          ],
          [
            37.85065,
            48.95678
          ],
          [
            37.8479,
            48.96399
          ],
          [
            37.82043,
            48.98202
          ],
          [
            37.81769,
            48.99103
          ],
          [
            37.80396,
            49.00365
          ],
          [
            37.82043,
            49.01806
          ],
          [
            37.88086,
            49.01806
          ],
          [
            37.88086,
            49.02706
          ],
          [
            37.86987,
            49.04507
          ],
          [
            37.83966,
            49.05767
          ],
          [
            37.79846,
            49.05767
          ],
          [
            37.771,
            49.04327
          ],
          [
            37.74902,
            49.03607
          ],
          [
            37.72705,
            49.03427
          ],
          [
            37.71606,
            49.02526
          ],
          [
            37.69409,
            49.01626
          ],
          [
            37.66388,
            49.00905
          ],
          [
            37.66388,
            49.01986
          ],
          [
            37.65289,
            49.02346
          ],
          [
            37.68585,
            49.04147
          ],
          [
            37.70508,
            49.06307
          ],
          [
            37.71606,
            49.09006
          ],
          [
            37.71606,
            49.09725
          ],
          [
            37.67487,
            49.11523
          ],
          [
            37.66937,
            49.13141
          ],
          [
            37.67212,
            49.14578
          ],
          [
            37.69684,
            49.17273
          ],
          [
            37.72156,
            49.18888
          ],
          [
            37.73529,
            49.19247
          ],
          [
            37.83417,
            49.19068
          ],
          [
            37.86987,
            49.20145
          ],
          [
            37.87811,
            49.20863
          ],
          [
            37.86163,
            49.23374
          ],
          [
            37.87262,
            49.25705
          ],
          [
            37.85614,
            49.28214
          ],
          [
            37.86987,
            49.2911
          ],
          [
            37.92206,
            49.29826
          ],
          [
            37.9248,
            49.30901
          ],
          [
            37.89459,
            49.33228
          ],
          [
            37.91107,
            49.35197
          ],
          [
            37.93304,
            49.36628
          ],
          [
            37.91107,
            49.37343
          ],
          [
            37.89734,
            49.36985
          ],
          [
            37.87262,
            49.36985
          ],
          [
            37.84515,
            49.37701
          ],
          [
            37.82593,
            49.37164
          ],
          [
            37.77924,
            49.36628
          ],
          [
            37.75726,
            49.37522
          ],
          [
            37.69958,
            49.37522
          ],
          [
            37.67761,
            49.39131
          ],
          [
            37.65564,
            49.39668
          ],
          [
            37.67761,
            49.42705
          ],
          [
            37.70782,
            49.4467
          ],
          [
            37.71606,
            49.4592
          ],
          [
            37.73804,
            49.46455
          ],
          [
            37.7298,
            49.47883
          ],
          [
            37.69135,
            49.50203
          ],
          [
            37.69684,
            49.51094
          ],
          [
            37.68585,
            49.51986
          ],
          [
            37.68311,
            49.54303
          ],
          [
            37.69684,
            49.55016
          ],
          [
            37.69409,
            49.55729
          ],
          [
            37.70233,
            49.56085
          ],
          [
            37.72156,
            49.56263
          ],
          [
            37.73254,
            49.57154
          ],
          [
            37.71057,
            49.59469
          ],
          [
            37.71057,
            49.60893
          ],
          [
            37.72705,
            49.61783
          ],
          [
            37.72156,
            49.62672
          ],
          [
            37.69684,
            49.63028
          ],
          [
            37.65839,
            49.64273
          ],
          [
            37.65839,
            49.6534
          ],
          [
            37.67761,
            49.66229
          ],
          [
            37.70233,
            49.68362
          ],
          [
            37.73254,
            49.70317
          ],
          [
            37.7298,
            49.71738
          ],
          [
            37.72156,
            49.72093
          ],
          [
            37.70508,
            49.72093
          ],
          [
            37.6886,
            49.73691
          ],
          [
            37.67212,
            49.74401
          ],
          [
            37.65015,
            49.73691
          ],
          [
            37.6062,
            49.73158
          ],
          [
            37.60071,
            49.73691
          ],
          [
            37.60071,
            49.75111
          ],
          [
            37.6062,
            49.7724
          ],
          [
            37.58972,
            49.78658
          ],
          [
            37.58972,
            49.8114
          ],
          [
            37.63641,
            49.85569
          ],
          [
            37.65289,
            49.87517
          ],
          [
            37.65289,
            49.88402
          ],
          [
            37.68036,
            49.8911
          ],
          [
            37.69135,
            49.90879
          ],
          [
            37.70782,
            49.91056
          ],
          [
            37.72156,
            49.92824
          ],
          [
            37.73254,
            49.94769
          ],
          [
            37.7243,
            49.96006
          ],
          [
            37.74078,
            49.97772
          ],
          [
            37.7243,
            49.98832
          ],
          [
            37.73254,
            50.00068
          ]
        ]
      }
    },
    {
      "type": "Feature",
      "properties": {
        "nome": "Setor de Sumy",
        "data_referencia": "2026-07-30",
        "atualizacao_liveuamap": "30/07/2026 20:16:54",
        "fonte": "Liveuamap",
        "fonte_url": "https://liveuamap.com/",
        "metodo": "Vetorização da camada de controle exibida no Liveuamap em zoom 9, união dos segmentos contíguos e remoção aproximada de fronteiras internacionais e litoral.",
        "aviso": "Recorte cartográfico aproximado; não usar para navegação ou decisões operacionais."
      },
      "geometry": {
        "type": "LineString",
        "coordinates": [
          [
            34.8349,
            51.11904
          ],
          [
            34.8349,
            51.088
          ],
          [
            34.87335,
            51.1018
          ],
          [
            34.88159,
            51.0949
          ],
          [
            34.89532,
            51.09662
          ],
          [
            34.92279,
            51.09317
          ],
          [
            34.96399,
            51.09317
          ],
          [
            34.9942,
            51.1087
          ],
          [
            35.02441,
            51.11214
          ]
        ]
      }
    },
    {
      "type": "Feature",
      "properties": {
        "nome": "Setor de Kharkiv",
        "data_referencia": "2026-07-30",
        "atualizacao_liveuamap": "30/07/2026 20:16:54",
        "fonte": "Liveuamap",
        "fonte_url": "https://liveuamap.com/",
        "metodo": "Vetorização da camada de controle exibida no Liveuamap em zoom 9, união dos segmentos contíguos e remoção aproximada de fronteiras internacionais e litoral.",
        "aviso": "Recorte cartográfico aproximado; não usar para navegação ou decisões operacionais."
      },
      "geometry": {
        "type": "LineString",
        "coordinates": [
          [
            36.95801,
            50.2753
          ],
          [
            36.96625,
            50.27003
          ],
          [
            37.00195,
            50.2595
          ],
          [
            37.02393,
            50.2472
          ],
          [
            37.02667,
            50.23667
          ],
          [
            37.0047,
            50.21734
          ],
          [
            36.90857,
            50.22964
          ],
          [
            36.88934,
            50.22085
          ],
          [
            36.88385,
            50.21031
          ],
          [
            36.87286,
            50.20152
          ],
          [
            36.85638,
            50.21382
          ],
          [
            36.85638,
            50.22788
          ],
          [
            36.83167,
            50.24369
          ]
        ]
      }
    }
  ]
}
